{
  "norad_id": 48595,
  "name": "STARLINK-2252",
  "history": [
    {
      "epoch": "2026-04-15T20:29:59.004096Z",
      "apogee_km": 548.2338041502353,
      "perigee_km": 546.1160437638882,
      "latitude_deg": -1.1218211369399211e-06,
      "longitude_deg": -176.72450037835918,
      "height_km": 548.0966600319879,
      "semi_major_axis_km": 6925.3119239570615,
      "eccentricity": 0.0001529,
      "inclination_deg": 53.0541,
      "raan_deg": 334.7816,
      "arg_perigee_deg": 92.4138,
      "mean_anomaly_deg": 267.7026,
      "mean_motion_rev_day": 15.06411953
    },
    {
      "epoch": "2026-04-16T14:00:54.438624Z",
      "apogee_km": 548.2199151621035,
      "perigee_km": 546.1007741746344,
      "latitude_deg": 5.887338468482564e-05,
      "longitude_deg": -83.45116316343517,
      "height_km": 548.0451617540525,
      "semi_major_axis_km": 6925.297344668368,
      "eccentricity": 0.000153,
      "inclination_deg": 53.0538,
      "raan_deg": 331.5052,
      "arg_perigee_deg": 90.4174,
      "mean_anomaly_deg": 269.6991,
      "mean_motion_rev_day": 15.0641671
    },
    {
      "epoch": "2026-04-17T21:50:01.253472Z",
      "apogee_km": 544.0703948013952,
      "perigee_km": 541.4581698214006,
      "latitude_deg": -1.363322289847314e-05,
      "longitude_deg": 151.997347432174,
      "height_km": 544.4697423102697,
      "semi_major_axis_km": 6920.901282311398,
      "eccentricity": 0.00018872,
      "inclination_deg": 53.0572,
      "raan_deg": 325.5389,
      "arg_perigee_deg": 129.3048,
      "mean_anomaly_deg": 230.8109,
      "mean_motion_rev_day": 15.07852221
    },
    {
      "epoch": "2026-04-18T20:00:01.000224Z",
      "apogee_km": 532.7624064243555,
      "perigee_km": 532.2206131491876,
      "latitude_deg": -15.14131896523605,
      "longitude_deg": 162.7573392630472,
      "height_km": 536.813832581636,
      "semi_major_axis_km": 6910.628509786771,
      "eccentricity": 3.92e-05,
      "inclination_deg": 53.0689,
      "raan_deg": 321.3786,
      "arg_perigee_deg": 174.4983,
      "mean_anomaly_deg": 166.6337,
      "mean_motion_rev_day": 15.11215644
    },
    {
      "epoch": "2026-04-19T20:00:01.999008Z",
      "apogee_km": 527.1853331763241,
      "perigee_km": 526.6122152070666,
      "latitude_deg": 19.96716834369059,
      "longitude_deg": -175.32998083482053,
      "height_km": 527.1808980599172,
      "semi_major_axis_km": 6905.035774191695,
      "eccentricity": 4.15e-05,
      "inclination_deg": 53.0765,
      "raan_deg": 316.8558,
      "arg_perigee_deg": 78.5134,
      "mean_anomaly_deg": 306.7227,
      "mean_motion_rev_day": 15.1305203
    },
    {
      "epoch": "2026-04-20T14:00:03.000384Z",
      "apogee_km": 524.896644409936,
      "perigee_km": 520.430446296984,
      "latitude_deg": 21.544374180370284,
      "longitude_deg": 57.61481521018419,
      "height_km": 522.2599658631805,
      "semi_major_axis_km": 6900.80054535346,
      "eccentricity": 0.0003236,
      "inclination_deg": 53.0831,
      "raan_deg": 313.4552,
      "arg_perigee_deg": 89.2118,
      "mean_anomaly_deg": 63.4789,
      "mean_motion_rev_day": 15.14445152
    },
    {
      "epoch": "2026-04-21T22:00:01.998720Z",
      "apogee_km": 516.8140825843002,
      "perigee_km": 513.8374853541818,
      "latitude_deg": -36.94448363360766,
      "longitude_deg": -18.423787865992356,
      "height_km": 527.9675475531485,
      "semi_major_axis_km": 6893.462783969241,
      "eccentricity": 0.0002159,
      "inclination_deg": 53.093,
      "raan_deg": 307.3978,
      "arg_perigee_deg": 108.9194,
      "mean_anomaly_deg": 119.482,
      "mean_motion_rev_day": 15.16863877
    },
    {
      "epoch": "2026-04-22T20:00:03.000384Z",
      "apogee_km": 512.1153176358393,
      "perigee_km": 508.0457587142855,
      "latitude_deg": -14.008692853232343,
      "longitude_deg": -16.948095745307253,
      "height_km": 514.039678539378,
      "semi_major_axis_km": 6888.217538175062,
      "eccentricity": 0.0002954,
      "inclination_deg": 53.1003,
      "raan_deg": 303.2174,
      "arg_perigee_deg": 101.4413,
      "mean_anomaly_deg": 95.9462,
      "mean_motion_rev_day": 15.18596801
    },
    {
      "epoch": "2026-04-23T16:00:01.999584Z",
      "apogee_km": 506.45870648859,
      "perigee_km": 504.34917653165485,
      "latitude_deg": 50.974877600382015,
      "longitude_deg": -85.2323782040949,
      "height_km": 510.3958091235723,
      "semi_major_axis_km": 6883.540941510122,
      "eccentricity": 0.00015323,
      "inclination_deg": 53.107,
      "raan_deg": 299.4108,
      "arg_perigee_deg": 70.4866,
      "mean_anomaly_deg": 5.2826,
      "mean_motion_rev_day": 15.20144639
    },
    {
      "epoch": "2026-04-24T20:00:01.999008Z",
      "apogee_km": 501.87007865941086,
      "perigee_km": 500.7088314737957,
      "latitude_deg": -11.594916084664407,
      "longitude_deg": 132.38780459065703,
      "height_km": 504.61598747392674,
      "semi_major_axis_km": 6879.426455066603,
      "eccentricity": 8.44e-05,
      "inclination_deg": 53.1158,
      "raan_deg": 294.0642,
      "arg_perigee_deg": 96.924,
      "mean_anomaly_deg": 248.7148,
      "mean_motion_rev_day": 15.21508608
    },
    {
      "epoch": "2026-04-25T20:00:01.000224Z",
      "apogee_km": 496.9672683660856,
      "perigee_km": 494.531163091232,
      "latitude_deg": 48.713822785484325,
      "longitude_deg": -166.20900555736608,
      "height_km": 500.0572661415358,
      "semi_major_axis_km": 6873.8862157286585,
      "eccentricity": 0.0001772,
      "inclination_deg": 53.1232,
      "raan_deg": 289.4703,
      "arg_perigee_deg": 71.2807,
      "mean_anomaly_deg": 358.3134,
      "mean_motion_rev_day": 15.23348445
    },
    {
      "epoch": "2026-04-26T22:00:00.999936Z",
      "apogee_km": 490.6303162985723,
      "perigee_km": 488.57960854859266,
      "latitude_deg": -51.71619165168704,
      "longitude_deg": -9.55170984267077,
      "height_km": 508.5414588112146,
      "semi_major_axis_km": 6867.741962423583,
      "eccentricity": 0.0001493,
      "inclination_deg": 53.1332,
      "raan_deg": 284.4786,
      "arg_perigee_deg": 88.126,
      "mean_anomaly_deg": 170.0996,
      "mean_motion_rev_day": 15.25393207
    },
    {
      "epoch": "2026-04-27T20:00:03.000384Z",
      "apogee_km": 486.2851663427973,
      "perigee_km": 484.3551621882061,
      "latitude_deg": -51.62630559234151,
      "longitude_deg": 14.740930877582757,
      "height_km": 504.1719652305681,
      "semi_major_axis_km": 6863.457164265502,
      "eccentricity": 0.0001406,
      "inclination_deg": 53.1391,
      "raan_deg": 280.2434,
      "arg_perigee_deg": 83.3621,
      "mean_anomaly_deg": 174.504,
      "mean_motion_rev_day": 15.26821865
    },
    {
      "epoch": "2026-04-28T20:00:01.000224Z",
      "apogee_km": 479.44511328179306,
      "perigee_km": 476.8616630635297,
      "latitude_deg": 1.2713973371988594,
      "longitude_deg": 119.7519211057446,
      "height_km": 478.94220798583257,
      "semi_major_axis_km": 6856.290388172661,
      "eccentricity": 0.0001884,
      "inclination_deg": 53.1463,
      "raan_deg": 275.6113,
      "arg_perigee_deg": 93.775,
      "mean_anomaly_deg": 267.9258,
      "mean_motion_rev_day": 15.29216436
    },
    {
      "epoch": "2026-04-29T20:00:01.999008Z",
      "apogee_km": 478.7619514695989,
      "perigee_km": 476.9355168700158,
      "latitude_deg": 48.76462328050307,
      "longitude_deg": -125.07073828433414,
      "height_km": 482.5278905036879,
      "semi_major_axis_km": 6855.985734169807,
      "eccentricity": 0.0001332,
      "inclination_deg": 53.1501,
      "raan_deg": 270.9712,
      "arg_perigee_deg": 90.4053,
      "mean_anomaly_deg": 19.9305,
      "mean_motion_rev_day": 15.29318366
    },
    {
      "epoch": "2026-04-30T16:00:03.000096Z",
      "apogee_km": 478.7719125357962,
      "perigee_km": 476.7318742366806,
      "latitude_deg": 16.67769440066942,
      "longitude_deg": -178.61665492210255,
      "height_km": 477.61732700501767,
      "semi_major_axis_km": 6855.888893386238,
      "eccentricity": 0.00014878,
      "inclination_deg": 53.1503,
      "raan_deg": 267.1039,
      "arg_perigee_deg": 88.7356,
      "mean_anomaly_deg": 292.2671,
      "mean_motion_rev_day": 15.29350769
    },
    {
      "epoch": "2026-05-02T00:00:02.000160Z",
      "apogee_km": 478.55346930920314,
      "perigee_km": 476.75039681980707,
      "latitude_deg": 11.185610368997118,
      "longitude_deg": -147.49106693451355,
      "height_km": 477.7924395822311,
      "semi_major_axis_km": 6855.788933064505,
      "eccentricity": 0.0001315,
      "inclination_deg": 53.1501,
      "raan_deg": 260.9168,
      "arg_perigee_deg": 75.6421,
      "mean_anomaly_deg": 90.3005,
      "mean_motion_rev_day": 15.29384217
    },
    {
      "epoch": "2026-05-03T17:37:30.374112Z",
      "apogee_km": 478.77490496419614,
      "perigee_km": 476.7373335291559,
      "latitude_deg": 3.891292932497318e-05,
      "longitude_deg": 126.85735607755024,
      "height_km": 478.54461991094706,
      "semi_major_axis_km": 6855.893119246676,
      "eccentricity": 0.0001486,
      "inclination_deg": 53.1501,
      "raan_deg": 252.8677,
      "arg_perigee_deg": 83.9211,
      "mean_anomaly_deg": 276.1959,
      "mean_motion_rev_day": 15.29349355
    },
    {
      "epoch": "2026-05-04T15:34:57.988992Z",
      "apogee_km": 478.5966315018959,
      "perigee_km": 476.8415323449235,
      "latitude_deg": 1.08386473337785e-05,
      "longitude_deg": 152.34660053781957,
      "height_km": 478.5991158953073,
      "semi_major_axis_km": 6855.85608192341,
      "eccentricity": 0.000128,
      "inclination_deg": 53.1496,
      "raan_deg": 248.6238,
      "arg_perigee_deg": 88.9173,
      "mean_anomaly_deg": 271.1974,
      "mean_motion_rev_day": 15.29361748
    }
  ]
}